IRIDIUM 39              
1 25042U 97069D   26004.03609789  .00001319  00000+0  33818-3 0  9997
2 25042  86.3934 125.0707 0017510   2.0845 358.0429 14.49548118478053
IRIDIUM 38              
1 25043U 97069E   26003.89215773  .00000894  00000+0  28720-3 0  9990
2 25043  86.3990 148.7939 0003253 126.6001 233.5496 14.38341985474802
IRIDIUM 42              
1 25077U 97077A   26003.93680545  .00000777  00000+0  25808-3 0  9998
2 25077  86.3994 155.1908 0002181 113.9225 246.2200 14.36557335470016
IRIDIUM 44              
1 25078U 97077B   26003.90469767  .00000763  00000+0  23395-3 0  9991
2 25078  86.3988 136.6031 0003895  90.9531 269.2115 14.40455877472596
IRIDIUM 45              
1 25104U 97082A   26003.88338332  .00044156  00000+0  12063-2 0  9990
2 25104  86.3549 309.7531 0091822 295.8398  63.3403 15.32975355482663
IRIDIUM 24              
1 25105U 97082B   26004.03317167  .00000918  00000+0  27156-3 0  9990
2 25105  86.3912 355.0909 0012948 127.4404 232.7977 14.42355944472169
IRIDIUM 51              
1 25262U 98018A   26003.58645128  .00163142  00000+0  14081-2 0  9995
2 25262  86.3729 314.9861 0046848 179.8982 180.2306 15.67291967478068
IRIDIUM 57              
1 25273U 98019B   26004.06943073  .00000581  00000+0  19321-3 0  9992
2 25273  86.3937  61.0220 0002286  95.9209 264.2248 14.36071274453612
